ONEWEB-0613             
1 56071U 23043AB  23333.76970102 -.00000362  00000+0 -99533-3 0  9991
2 56071  87.9002  84.4272 0001826 118.5442 241.5872 13.15545042 35014
ONEWEB-0630             
1 56072U 23043AC  23333.38465735  .00000227  00000+0  56913-3 0  9994
2 56072  87.9001  84.5020 0001252 116.6688 243.4570 13.15547198 34042
ONEWEB-0632             
1 56073U 23043AD  23333.37991674  .00000276  00000+0  69974-3 0  9995
2 56073  87.9003  84.5206 0001329  90.5204 269.6079 13.15548412 34044
ONEWEB-0633             
1 56074U 23043AE  23333.37356547  .00000225  00000+0  56473-3 0  9994
2 56074  87.8996  84.5116 0001383 127.1830 232.9427 13.15547760 34020
ONEWEB-0634             
1 56075U 23043AF  23333.35932405  .00000044  00000+0  81843-4 0  9995
2 56075  87.9004  84.5120 0001898 113.6863 246.4467 13.15547617 34018
ONEWEB-0635             
1 56076U 23043AG  23333.35457323  .00000023  00000+0  26747-4 0  9996
2 56076  87.8979  84.5785 0001303  83.2680 276.8598 13.15547905 34041
ONEWEB-0636             
1 56077U 23043AH  23333.34665104 -.00000031  00000+0 -11626-3 0  9994
2 56077  87.8986  84.5458 0001505  87.7280 272.4022 13.15548379 34024
ONEWEB-0637             
1 56078U 23043AJ  23333.79665475 -.00000136  00000+0 -39499-3 0  9999
2 56078  87.9013  84.4268 0001467  84.9247 275.2051 13.15547004 35011
